0 SL-12 R/B(AUX MOTOR)
1 33384U 08046G   13284.15034502  .00000071  00000-0  92465-3 0  1446
2 33384 065.4079 231.0009 5555405 106.6237 355.2949 04.23092715 77928
0 SL-12 R/B(AUX MOTOR)
1 33384U 08046G   13286.28857538  .00000039  00000-0  70920-3 0  1451
2 33384 065.4078 230.2810 5554903 106.5034 012.1140 04.23093105 78011
0 SL-12 R/B(AUX MOTOR)
1 33384U 08046G   13288.40492169  .00000035  00000-0  76944-3 0  1461
2 33384 065.4078 229.5688 5554411 106.3840 355.6053 04.23093279 78102
0 SL-12 R/B(AUX MOTOR)
1 33384U 08046G   13291.25202288  .00000031  00000-0  51286-3 0  1478
2 33384 065.4077 228.6111 5553757 106.2230 012.1385 04.23093750 78226
0 SL-12 R/B(AUX MOTOR)
1 33384U 08046G   13293.36813784  .00000053  00000-0  66877-3 0  1488
2 33384 065.4077 227.8994 5553253 106.1031 355.2826 04.23093789 78318
0 SL-12 R/B(AUX MOTOR)
1 33384U 08046G   13295.96561481  .00000045  00000-0  54791-3 0  1494
2 33384 065.4076 227.0260 5552640 105.9558 351.6086 04.23094142 78429
